FLOCK 4BE-3             
1 60561U 24149CX  26204.22487287  .00018748  00000+0  43238-3 0  9992
2 60561  97.3685 288.5068 0005499 146.3953 213.7644 15.42603740107897
FLOCK 4BE-19            
1 60563U 24149CZ  26204.19723176  .00026078  00000+0  53587-3 0  9993
2 60563  97.3733 290.2079 0006176 152.1557 208.0024 15.45955159107989
FLOCK 4G-8              
1 62613U 25009E   26204.18527523  .00010308  00000+0  35346-3 0  9996
2 62613  97.3995 286.0520 0004890 166.3995 193.7378 15.30356602 84422
FLOCK 4G-13             
1 62621U 25009N   26204.17137926  .00098212  00000+0  17344-2 0  9995
2 62621  97.3935 288.2217 0006588 178.4244 181.7030 15.49990996 84566
FLOCK 4G-9              
1 62622U 25009P   26204.67530845  .00008713  00000+0  31553-3 0  9994
2 62622  97.3950 285.3674 0004918 175.0610 185.0679 15.28619488 84437
FLOCK 4G-7              
1 62624U 25009R   26204.49831262  .00010744  00000+0  37246-3 0  9995
2 62624  97.3934 285.6236 0003374 160.1934 199.9438 15.29995496 84453
FLOCK 4G-12             
1 62625U 25009S   26204.88653795  .00009708  00000+0  33766-3 0  9993
2 62625  97.4012 286.5675 0005007 161.7284 198.4137 15.29910770 84518
FLOCK 4G-11             
1 62629U 25009W   26204.67457201  .00010932  00000+0  37861-3 0  9999
2 62629  97.3913 285.9049 0003465 160.1128 200.0248 15.30021009 84495
FLOCK 4G-26             
1 62633U 25009AA  26204.22932133  .00012735  00000+0  43794-3 0  9992
2 62633  97.4008 286.0769 0004359 154.3716 205.7741 15.30210618 84427
FLOCK 4G-28             
1 62634U 25009AB  26204.49371066  .00009284  00000+0  27236-3 0  9992
2 62634  97.4016 289.1920 0002751 144.8328 215.3097 15.35388694 84658
FLOCK 4G-24             
1 62637U 25009AE  26204.17370087  .00010824  00000+0  36957-3 0  9994
2 62637  97.4013 286.3309 0004275 144.7957 215.3567 15.30483228 84430
FLOCK 4G-3              
1 62639U 25009AG  26204.16946159  .00009900  00000+0  34353-3 0  9995
2 62639  97.4014 286.0287 0003890 149.3681 210.7787 15.29984450 84403
FLOCK 4G-27             
1 62641U 25009AJ  26204.18939184  .00009595  00000+0  33378-3 0  9996
2 62641  97.3923 285.3862 0003234 150.4251 209.7173 15.29914798 84408
FLOCK 4G-29             
1 62642U 25009AK  26204.17450466  .00006652  00000+0  23205-3 0  9996
2 62642  97.4010 285.9931 0004063 145.3740 214.7766 15.29942880 84404
FLOCK 4G-22             
1 62645U 25009AN  26204.19336816  .00011396  00000+0  39613-3 0  9994
2 62645  97.3997 286.0436 0003582 143.4334 216.7151 15.29891332 84422
FLOCK 4G-25             
1 62646U 25009AP  26204.23126939  .00011918  00000+0  41108-3 0  9995
2 62646  97.4004 286.1637 0003036 145.4444 214.6995 15.30131322 84437
